{
  "norad_id": 62820,
  "name": "STARLINK-32844",
  "history": [
    {
      "epoch": "2026-03-28T20:42:36.421920",
      "apogee_km": 475.82069628975205,
      "perigee_km": 474.493898513776,
      "latitude_deg": -33.30604655033862,
      "longitude_deg": -175.15953119983897,
      "semi_major_axis_km": 6853.294297401764,
      "eccentricity": 9.68e-05,
      "inclination_deg": 53.1579,
      "raan_deg": 220.552,
      "arg_perigee_deg": 63.0349,
      "mean_anomaly_deg": 297.075,
      "mean_motion_rev_day": 15.30219349
    }
  ]
}