{"fetched_at":"2026-03-30T06:02:59Z","count":15439,"tles":[{"name":"STARLINK-32844","line1":"1 62820U 25018Q   26087.86292155  .00025829  00000+0  88063-3 0  9998","line2":"2 62820  53.1579 220.5520 0000968  63.0349 297.0750 15.30219349 66104","category":"Starlink"}]}